[{"OBJECT_NAME":"STARLINK-4710","OBJECT_ID":"2022-111AC","EPOCH":"2026-03-09T19:27:39.444480","MEAN_MOTION":15.08840113,"ECCENTRICITY":0.00013588,"INCLINATION":53.2169,"RA_OF_ASC_NODE":263.6492,"ARG_OF_PERICENTER":88.0615,"MEAN_ANOMALY":272.0532,"EPHEMERIS_TYPE":0,"CLASSIFICATION_TYPE":"U","NORAD_CAT_ID":53799,"ELEMENT_SET_NO":999,"REV_AT_EPOCH":19383,"BSTAR":5.171456e-5,"MEAN_MOTION_DOT":5.35e-6,"MEAN_MOTION_DDOT":0},{"OBJECT_NAME":"FENGYUN 1C DEB","OBJECT_ID":"1999-025EB","EPOCH":"2026-03-09T21:27:48.971520","MEAN_MOTION":14.9364801,"ECCENTRICITY":0.00856057,"INCLINATION":99.085,"RA_OF_ASC_NODE":69.4314,"ARG_OF_PERICENTER":339.4426,"MEAN_ANOMALY":20.3352,"EPHEMERIS_TYPE":0,"CLASSIFICATION_TYPE":"U","NORAD_CAT_ID":29833,"ELEMENT_SET_NO":999,"REV_AT_EPOCH":1871,"BSTAR":0.0015409165,"MEAN_MOTION_DOT":0.00017454,"MEAN_MOTION_DDOT":0}]
